IRIDIUM 57              
1 25273U 98019B   24131.56748098  .00000818  00000+0  27946-3 0  9991
2 25273  86.3925 313.8904 0002153  89.0587 271.0856 14.35187908367236
IRIDIUM 63              
1 25286U 98021B   24131.60558159  .00001043  00000+0  35435-3 0  9993
2 25286  86.3987 250.7483 0002285  97.7784 262.3672 14.35734270366069
IRIDIUM 69              
1 25319U 98026A   24131.43697322  .00001313  00000+0  41141-3 0  9993
2 25319  86.3957 265.3263 0000219 238.8370 121.2808 14.39952859365089
IRIDIUM 71              
1 25320U 98026B   24131.44523893  .00001129  00000+0  35057-3 0  9991
2 25320  86.3964 260.0889 0002185  34.7825 325.3516 14.40270780365606
IRIDIUM 73              
1 25344U 98032C   24131.49810636  .00001284  00000+0  32333-3 0  9999
2 25344  86.4471 217.5600 0001673  95.5322 264.6074 14.50491265372169
IRIDIUM 82              
1 25467U 98051A   24131.49364466  .00015193  00000+0  78561-3 0  9998
2 25467  86.3708 303.6481 0129124   0.2433 359.8842 15.09074211362802
IRIDIUM 2               
1 25527U 98066A   24131.54433217  .00198862  00000+0  13754-2 0  9995
2 25527  85.5023 327.7520 0003142 118.9570 241.2016 15.73946391401484
